{
  "type": "FeatureCollection",
  "features": [
    {
      "type": "Feature",
      "properties": {
        "norad_id": 59626,
        "name": "LEGION 2",
        "group": "resource",
        "lat": -74.25409555560509,
        "lon": -156.68675129566898,
        "alt_km": 523.4814423419557,
        "timestamp": "2025-12-02T10:50:46.931187+00:00",
        "meta_object_name": "LEGION 2",
        "meta_object_id": "2024-081B",
        "meta_epoch": "2025-12-02T03:23:04.850304",
        "meta_mean_motion": 15.16323556,
        "meta_eccentricity": 0.0006325,
        "meta_inclination": 97.5235,
        "meta_ra_of_asc_node": 50.9574,
        "meta_arg_of_pericenter": 336.617,
        "meta_mean_anomaly": 23.4774,
        "meta_ephemeris_type": 0,
        "meta_classification_type": "U",
        "meta_norad_cat_id": 59626,
        "meta_element_set_no": 999,
        "meta_rev_at_epoch": 8767,
        "meta_bstar": 0.00031608,
        "meta_mean_motion_dot": 6.063e-05,
        "meta_mean_motion_ddot": 0,
        "tle_line1": "1 59626U 24081B   25336.14102836  .00006063  00000+0  31608-3 0  9992",
        "tle_line2": "2 59626  97.5235  50.9574 0006325 336.6170  23.4774 15.16323556 87675"
      },
      "geometry": {
        "type": "Point",
        "coordinates": [
          -156.68675129566898,
          -74.25409555560509
        ]
      }
    },
    {
      "type": "Feature",
      "properties": {
        "norad_id": 60182,
        "name": "ALOS-4 (DAICHI-4)",
        "group": "resource",
        "lat": -19.058375295759255,
        "lon": -111.31208401815263,
        "alt_km": 636.2929276225359,
        "timestamp": "2025-12-02T10:50:46.931199+00:00",
        "meta_object_name": "ALOS-4 (DAICHI-4)",
        "meta_object_id": "2024-123A",
        "meta_epoch": "2025-11-30T09:15:12.370176",
        "meta_mean_motion": 14.79468497,
        "meta_eccentricity": 0.000127,
        "meta_inclination": 97.9232,
        "meta_ra_of_asc_node": 69.4089,
        "meta_arg_of_pericenter": 105.4124,
        "meta_mean_anomaly": 254.7228,
        "meta_ephemeris_type": 0,
        "meta_classification_type": "U",
        "meta_norad_cat_id": 60182,
        "meta_element_set_no": 999,
        "meta_rev_at_epoch": 7648,
        "meta_bstar": -8.429942e-06,
        "meta_mean_motion_dot": -1.14e-06,
        "meta_mean_motion_ddot": 0,
        "tle_line1": "1 60182U 24123A   25334.38555984 -.00000114  00000+0 -84299-5 0  9997",
        "tle_line2": "2 60182  97.9232  69.4089 0001270 105.4124 254.7228 14.79468497 76488"
      },
      "geometry": {
        "type": "Point",
        "coordinates": [
          -111.31208401815263,
          -19.058375295759255
        ]
      }
    },
    {
      "type": "Feature",
      "properties": {
        "norad_id": 60452,
        "name": "LEGION 3",
        "group": "resource",
        "lat": -36.77240996955256,
        "lon": -126.3232184393239,
        "alt_km": 523.7973022356537,
        "timestamp": "2025-12-02T10:50:46.931210+00:00",
        "meta_object_name": "LEGION 3",
        "meta_object_id": "2024-146A",
        "meta_epoch": "2025-12-02T03:28:30.916128",
        "meta_mean_motion": 15.15581039,
        "meta_eccentricity": 0.0013664,
        "meta_inclination": 45.0023,
        "meta_ra_of_asc_node": 6.9231,
        "meta_arg_of_pericenter": 138.3142,
        "meta_mean_anomaly": 221.878,
        "meta_ephemeris_type": 0,
        "meta_classification_type": "U",
        "meta_norad_cat_id": 60452,
        "meta_element_set_no": 999,
        "meta_rev_at_epoch": 7212,
        "meta_bstar": 0.00032213,
        "meta_mean_motion_dot": 5.97e-05,
        "meta_mean_motion_ddot": 0,
        "tle_line1": "1 60452U 24146A   25336.14480227  .00005970  00000+0  32213-3 0  9995",
        "tle_line2": "2 60452  45.0023   6.9231 0013664 138.3142 221.8780 15.15581039 72124"
      },
      "geometry": {
        "type": "Point",
        "coordinates": [
          -126.3232184393239,
          -36.77240996955256
        ]
      }
    },
    {
      "type": "Feature",
      "properties": {
        "norad_id": 60453,
        "name": "LEGION 4",
        "group": "resource",
        "lat": -34.013211698034596,
        "lon": -40.59507996652661,
        "alt_km": 516.0840254267805,
        "timestamp": "2025-12-02T10:50:46.931221+00:00",
        "meta_object_name": "LEGION 4",
        "meta_object_id": "2024-146B",
        "meta_epoch": "2025-12-02T01:54:59.419296",
        "meta_mean_motion": 15.15637118,
        "meta_eccentricity": 0.000986,
        "meta_inclination": 45.0373,
        "meta_ra_of_asc_node": 98.9887,
        "meta_arg_of_pericenter": 255.7164,
        "meta_mean_anomaly": 104.262,
        "meta_ephemeris_type": 0,
        "meta_classification_type": "U",
        "meta_norad_cat_id": 60453,
        "meta_element_set_no": 999,
        "meta_rev_at_epoch": 7096,
        "meta_bstar": 0.0004098,
        "meta_mean_motion_dot": 7.675e-05,
        "meta_mean_motion_ddot": 0,
        "tle_line1": "1 60453U 24146B   25336.07985439  .00007675  00000+0  40980-3 0  9997",
        "tle_line2": "2 60453  45.0373  98.9887 0009860 255.7164 104.2620 15.15637118 70969"
      },
      "geometry": {
        "type": "Point",
        "coordinates": [
          -40.59507996652661,
          -34.013211698034596
        ]
      }
    },
    {
      "type": "Feature",
      "properties": {
        "norad_id": 60989,
        "name": "SENTINEL-2C",
        "group": "resource",
        "lat": -37.675613593531594,
        "lon": 55.76450928072489,
        "alt_km": 795.9741089262616,
        "timestamp": "2025-12-02T10:50:46.931233+00:00",
        "meta_object_name": "SENTINEL-2C",
        "meta_object_id": "2024-157A",
        "meta_epoch": "2025-12-02T02:37:58.373760",
        "meta_mean_motion": 14.30823156,
        "meta_eccentricity": 0.0001163,
        "meta_inclination": 98.5615,
        "meta_ra_of_asc_node": 48.7472,
        "meta_arg_of_pericenter": 102.2204,
        "meta_mean_anomaly": 257.9109,
        "meta_ephemeris_type": 0,
        "meta_classification_type": "U",
        "meta_norad_cat_id": 60989,
        "meta_element_set_no": 999,
        "meta_rev_at_epoch": 6480,
        "meta_bstar": 8.6197e-05,
        "meta_mean_motion_dot": 1.82e-06,
        "meta_mean_motion_ddot": 0,
        "tle_line1": "1 60989U 24157A   25336.10970340  .00000182  00000+0  86197-4 0  9999",
        "tle_line2": "2 60989  98.5615  48.7472 0001163 102.2204 257.9109 14.30823156 64806"
      },
      "geometry": {
        "type": "Point",
        "coordinates": [
          55.76450928072489,
          -37.675613593531594
        ]
      }
    },
    {
      "type": "Feature",
      "properties": {
        "norad_id": 61735,
        "name": "IONOSFERA-M 1",
        "group": "resource",
        "lat": 11.809883859119132,
        "lon": 28.22184620300212,
        "alt_km": 818.1413383262461,
        "timestamp": "2025-12-02T10:50:46.931243+00:00",
        "meta_object_name": "IONOSFERA-M 1",
        "meta_object_id": "2024-199A",
        "meta_epoch": "2025-12-02T04:59:45.699648",
        "meta_mean_motion": 14.22710155,
        "meta_eccentricity": 0.0001423,
        "meta_inclination": 98.7409,
        "meta_ra_of_asc_node": 206.1366,
        "meta_arg_of_pericenter": 36.8946,
        "meta_mean_anomaly": 323.233,
        "meta_ephemeris_type": 0,
        "meta_classification_type": "U",
        "meta_norad_cat_id": 61735,
        "meta_element_set_no": 999,
        "meta_rev_at_epoch": 9969,
        "meta_bstar": 6.1442e-05,
        "meta_mean_motion_dot": 9.3e-07,
        "meta_mean_motion_ddot": 0,
        "tle_line1": "1 61735U 24199A   25336.20816782  .00000093  00000+0  61442-4 0  9992",
        "tle_line2": "2 61735  98.7409 206.1366 0001423  36.8946 323.2330 14.22710155 99698"
      },
      "geometry": {
        "type": "Point",
        "coordinates": [
          28.22184620300212,
          11.809883859119132
        ]
      }
    },
    {
      "type": "Feature",
      "properties": {
        "norad_id": 61736,
        "name": "IONOSFERA-M 2",
        "group": "resource",
        "lat": -9.508098214880471,
        "lon": -152.23247710405198,
        "alt_km": 820.9084110784224,
        "timestamp": "2025-12-02T10:50:46.931254+00:00",
        "meta_object_name": "IONOSFERA-M 2",
        "meta_object_id": "2024-199B",
        "meta_epoch": "2025-12-02T04:08:23.993088",
        "meta_mean_motion": 14.22712257,
        "meta_eccentricity": 0.0001339,
        "meta_inclination": 98.7408,
        "meta_ra_of_asc_node": 206.0138,
        "meta_arg_of_pericenter": 123.2702,
        "meta_mean_anomaly": 236.8604,
        "meta_ephemeris_type": 0,
        "meta_classification_type": "U",
        "meta_norad_cat_id": 61736,
        "meta_element_set_no": 999,
        "meta_rev_at_epoch": 10281,
        "meta_bstar": 6.2837e-05,
        "meta_mean_motion_dot": 9.7e-07,
        "meta_mean_motion_ddot": 0,
        "tle_line1": "1 61736U 24199B   25336.17249992  .00000097  00000+0  62837-4 0  9995",
        "tle_line2": "2 61736  98.7408 206.0138 0001339 123.2702 236.8604 14.22712257102818"
      },
      "geometry": {
        "type": "Point",
        "coordinates": [
          -152.23247710405198,
          -9.508098214880471
        ]
      }
    }
  ]
}